$$SOE
2461295.500000000, A.D. 2026-Sep-12 00:00:00.0000, 2.766214417777658E+08, -4.106458335402237E+07, -1.050242673172675E+08,
2461302.500000000, A.D. 2026-Sep-19 00:00:00.0000, 2.790179749372669E+08, -2.888748279820866E+07, -1.028805896018190E+08,
2461309.500000000, A.D. 2026-Sep-26 00:00:00.0000, 2.809067553131180E+08, -1.665783269531267E+07, -1.005496826270885E+08,
2461316.500000000, A.D. 2026-Oct-03 00:00:00.0000, 2.822845705790983E+08, -4.397904169385131E+06, -9.803586928396253E+07,
2461323.500000000, A.D. 2026-Oct-10 00:00:00.0000, 2.831490739189774E+08, 7.869997165384322E+06, -9.534377813877814E+07,
2461330.500000000, A.D. 2026-Oct-17 00:00:00.0000, 2.834987861970896E+08, 2.012356308961923E+07, -9.247833641732141E+07,
2461337.500000000, A.D. 2026-Oct-24 00:00:00.0000, 2.833330973249138E+08, 3.234051449517111E+07, -8.944476272621864E+07,
2461344.500000000, A.D. 2026-Oct-31 00:00:00.0000, 2.826522669312060E+08, 4.449863289314510E+07, -8.624855953459670E+07,
2461351.500000000, A.D. 2026-Nov-07 00:00:00.0000, 2.814574246884056E+08, 5.657579180186123E+07, -8.289550545423649E+07,
2461358.500000000, A.D. 2026-Nov-14 00:00:00.0000, 2.797505704990464E+08, 6.854998890546347E+07, -7.939164726825722E+07,
2461365.500000000, A.D. 2026-Nov-21 00:00:00.0000, 2.775345727277200E+08, 8.039937967510062E+07, -7.574329148349696E+07,
2461372.500000000, A.D. 2026-Nov-28 00:00:00.0000, 2.748131634861891E+08, 9.210230945162994E+07, -7.195699555947158E+07,
2461379.500000000, A.D. 2026-Dec-05 00:00:00.0000, 2.715909345799425E+08, 1.036373433305446E+08, -6.803955918889022E+07,
2461386.500000000, A.D. 2026-Dec-12 00:00:00.0000, 2.678733342537825E+08, 1.149832969649842E+08, -6.399801537439359E+07,
2461393.500000000, A.D. 2026-Dec-19 00:00:00.0000, 2.636666628246130E+08, 1.261192683024592E+08, -5.983962111568107E+07,
2461400.500000000, A.D. 2026-Dec-26 00:00:00.0000, 2.589780670353294E+08, 1.370246693931029E+08, -5.557184775495251E+07,
2461407.500000000, A.D. 2027-Jan-02 00:00:00.0000, 2.538155333787780E+08, 1.476792580804546E+08, -5.120237101177067E+07,
2461414.500000000, A.D. 2027-Jan-09 00:00:00.0000, 2.481878804782195E+08, 1.580631695933334E+08, -4.673906070652217E+07,
2461421.500000000, A.D. 2027-Jan-16 00:00:00.0000, 2.421047505256774E+08, 1.681569480425247E+08, -4.218997016507854E+07,
2461428.500000000, A.D. 2027-Jan-23 00:00:00.0000, 2.355765997872369E+08, 1.779415777743232E+08, -3.756332530233388E+07,
2461435.500000000, A.D. 2027-Jan-30 00:00:00.0000, 2.286146883247617E+08, 1.873985145221964E+08, -3.286751339650242E+07,
2461442.500000000, A.D. 2027-Feb-06 00:00:00.0000, 2.212310693219056E+08, 1.965097166804451E+08, -2.811107155700304E+07,
2461449.500000000, A.D. 2027-Feb-13 00:00:00.0000, 2.134385775107976E+08, 2.052576778887075E+08, -2.330267473454933E+07,
2461456.500000000, A.D. 2027-Feb-20 00:00:00.0000, 2.052508142754468E+08, 2.136254601048802E+08, -1.845112311009655E+07,
2461463.500000000, A.D. 2027-Feb-27 00:00:00.0000, 1.966821307853785E+08, 2.215967239374832E+08, -1.356532924777429E+07,
2461470.500000000, A.D. 2027-Mar-06 00:00:00.0000, 1.877476121456176E+08, 2.291557581234094E+08, -8.654305127505705E+06,
2461477.500000000, A.D. 2027-Mar-13 00:00:00.0000, 1.784630609123132E+08, 2.362875101490889E+08, -3.727148736565322E+06,
2461484.500000000, A.D. 2027-Mar-20 00:00:00.0000, 1.688449787935433E+08, 2.429776171311906E+08, 1.206969819835559E+06,
2461491.500000000, A.D. 2027-Mar-27 00:00:00.0000, 1.589105466910823E+08, 2.492124363547368E+08, 6.138822627705872E+06,
2461498.500000000, A.D. 2027-Apr-03 00:00:00.0000, 1.486776032415137E+08, 2.549790753608235E+08, 1.105913867101431E+07,
2461505.500000000, A.D. 2027-Apr-10 00:00:00.0000, 1.381646218746135E+08, 2.602654215401697E+08, 1.595861893071340E+07,
2461512.500000000, A.D. 2027-Apr-17 00:00:00.0000, 1.273906863694580E+08, 2.650601711447754E+08, 2.082795186910090E+07,
2461519.500000000, A.D. 2027-Apr-24 00:00:00.0000, 1.163754649480026E+08, 2.693528575758270E+08, 2.565782928100273E+07,
2461526.500000000, A.D. 2027-May-01 00:00:00.0000, 1.051391831690714E+08, 2.731338788911579E+08, 3.043896247798818E+07,
2461533.500000000, A.D. 2027-May-08 00:00:00.0000, 9.370259589987281E+07, 2.763945251940523E+08, 3.516209882790972E+07,
2461540.500000000, A.D. 2027-May-15 00:00:00.0000, 8.208695684886691E+07, 2.791270067579138E+08, 3.981803885034104E+07,
2461547.500000000, A.D. 2027-May-22 00:00:00.0000, 7.031398406875782E+07, 2.813244801729712E+08, 4.439765377846719E+07,
2461554.500000000, A.D. 2027-May-29 00:00:00.0000, 5.840582475553764E+07, 2.829810709445810E+08, 4.889190313958067E+07,
2461561.500000000, A.D. 2027-Jun-05 00:00:00.0000, 4.638502022860481E+07, 2.840918955764558E+08, 5.329185250730145E+07,
2461568.500000000, A.D. 2027-Jun-12 00:00:00.0000, 3.427446908705729E+07, 2.846530834455252E+08, 5.758869161586741E+07,
2461575.500000000, A.D. 2027-Jun-19 00:00:00.0000, 2.209738821340400E+07, 2.846617974067394E+08, 6.177375275859214E+07,
2461582.500000000, A.D. 2027-Jun-26 00:00:00.0000, 9.877271917517841E+06, 2.841162527422764E+08, 6.583852938992625E+07,
2461589.500000000, A.D. 2027-Jul-03 00:00:00.0000, -2.362150620190810E+06, 2.830157343373711E+08, 6.977469488341871E+07,
2461596.500000000, A.D. 2027-Jul-10 00:00:00.0000, -1.459695952747132E+07, 2.813606119607378E+08, 7.357412140186204E+07,
2461603.500000000, A.D. 2027-Jul-17 00:00:00.0000, -2.680308994725882E+07, 2.791523534715236E+08, 7.722889882304974E+07,
2461610.500000000, A.D. 2027-Jul-24 00:00:00.0000, -3.895637905063248E+07, 2.763935357409062E+08, 8.073135363911025E+07,
2461617.500000000, A.D. 2027-Jul-31 00:00:00.0000, -5.103261387963550E+07, 2.730878533728896E+08, 8.407406774003628E+07,
2461624.500000000, A.D. 2027-Aug-07 00:00:00.0000, -6.300758015810605E+07, 2.692401262411829E+08, 8.724989712802672E+07,
2461631.500000000, A.D. 2027-Aug-14 00:00:00.0000, -7.485711428927548E+07, 2.648563054772251E+08, 9.025199069846603E+07,
2461638.500000000, A.D. 2027-Aug-21 00:00:00.0000, -8.655715780629644E+07, 2.599434744254246E+08, 9.307380869488771E+07,
2461645.500000000, A.D. 2027-Aug-28 00:00:00.0000, -9.808381072618926E+07, 2.545098456458835E+08, 9.570914055490944E+07,
2461652.500000000, A.D. 2027-Sep-04 00:00:00.0000, -1.094133848526811E+08, 2.485647563697875E+08, 9.815212239687334E+07,
2461659.500000000, A.D. 2027-Sep-11 00:00:00.0000, -1.205224582625000E+08, 2.421186616430708E+08, 1.003972541442022E+08,
2461666.500000000, A.D. 2027-Sep-18 00:00:00.0000, -1.313879306767849E+08, 2.351831244039346E+08, 1.024394161376578E+08,
2461673.500000000, A.D. 2027-Sep-25 00:00:00.0000, -1.419870793165741E+08, 2.277708023268279E+08, 1.042738851244573E+08,
2461680.500000000, A.D. 2027-Oct-02 00:00:00.0000, -1.522976149836907E+08, 2.198954313861913E+08, 1.058963495366707E+08,
2461687.500000000, A.D. 2027-Oct-09 00:00:00.0000, -1.622977381492561E+08, 2.115718060761673E+08, 1.073029239738106E+08,
2461694.500000000, A.D. 2027-Oct-16 00:00:00.0000, -1.719661947805094E+08, 2.028157561875214E+08, 1.084901627970563E+08,
2461701.500000000, A.D. 2027-Oct-23 00:00:00.0000, -1.812823314301279E+08, 1.936441201082399E+08, 1.094550727291551E+08,
2461708.500000000, A.D. 2027-Oct-30 00:00:00.0000, -1.902261489895608E+08, 1.840747152467355E+08, 1.101951243950288E+08,
2461715.500000000, A.D. 2027-Nov-06 00:00:00.0000, -1.987783560429423E+08, 1.741263067131066E+08, 1.107082629256122E+08,
2461722.500000000, A.D. 2027-Nov-13 00:00:00.0000, -2.069204235775752E+08, 1.638185722158208E+08, 1.109929175690644E+08,
2461729.500000000, A.D. 2027-Nov-20 00:00:00.0000, -2.146346379020039E+08, 1.531720610421427E+08, 1.110480097931825E+08,
2461736.500000000, A.D. 2027-Nov-27 00:00:00.0000, -2.219041499040969E+08, 1.422081501431678E+08, 1.108729598951589E+08,
2461743.500000000, A.D. 2027-Dec-04 00:00:00.0000, -2.287130224438675E+08, 1.309489983203771E+08, 1.104676923205281E+08,
2461750.500000000, A.D. 2027-Dec-11 00:00:00.0000, -2.350462761997141E+08, 1.194174976682571E+08, 1.098326396153154E+08,
2461757.500000000, A.D. 2027-Dec-18 00:00:00.0000, -2.408899334565620E+08, 1.076372220685364E+08, 1.089687449096538E+08,
2461764.500000000, A.D. 2027-Dec-25 00:00:00.0000, -2.462310594552329E+08, 9.563237288491473E+07, 1.078774628756948E+08,
2461771.500000000, A.D. 2028-Jan-01 00:00:00.0000, -2.510578010433104E+08, 8.342772204434845E+07, 1.065607591232065E+08,
$$EOE